2025-313BE              
1 67482U 25313BE  26068.69721505  .00077178  00000+0  26504-2 0  9996
2 67482  97.3989 145.3568 0007208 335.3714  24.7181 15.29801687  7972
KUIPER-00223            
1 67783U 26030V   26068.72136600  .00030225  00000+0  90645-3 0  9997
2 67783  51.8827 219.2782 0012824  59.0052 301.2192 15.34146210  5092
